[{"OBJECT_NAME":"STARLINK-32598","OBJECT_ID":"2024-216Q","EPOCH":"2026-03-09T21:38:52.545984","MEAN_MOTION":15.27570851,"ECCENTRICITY":0.00015201,"INCLINATION":43.0025,"RA_OF_ASC_NODE":254.6468,"ARG_OF_PERICENTER":259.1292,"MEAN_ANOMALY":100.9388,"EPHEMERIS_TYPE":0,"CLASSIFICATION_TYPE":"U","NORAD_CAT_ID":62046,"ELEMENT_SET_NO":999,"REV_AT_EPOCH":7391,"BSTAR":0.0012633396,"MEAN_MOTION_DOT":0.00034656,"MEAN_MOTION_DDOT":0},{"OBJECT_NAME":"OBJECT H","OBJECT_ID":"2025-155H","EPOCH":"2026-03-09T22:09:58.611456","MEAN_MOTION":15.27590961,"ECCENTRICITY":0.00081993,"INCLINATION":97.4482,"RA_OF_ASC_NODE":37.3122,"ARG_OF_PERICENTER":152.0629,"MEAN_ANOMALY":208.1051,"EPHEMERIS_TYPE":0,"CLASSIFICATION_TYPE":"U","NORAD_CAT_ID":64883,"ELEMENT_SET_NO":999,"REV_AT_EPOCH":6559,"BSTAR":0.00050403256,"MEAN_MOTION_DOT":0.00013547,"MEAN_MOTION_DDOT":0}]
